NORAD_CAT_ID,OBJECT_NAME,OBJECT_TYPE,EPOCH,MEAN_MOTION,ECCENTRICITY,INCLINATION,RA_OF_ASC_NODE,ARG_OF_PERICENTER,MEAN_ANOMALY,BSTAR,MEAN_MOTION_DOT,MEAN_MOTION_DDOT,TLE_LINE0,TLE_LINE1,TLE_LINE2,SEMIMAJOR_AXIS,PERIOD,APOGEE,PERIGEE,DECAYED
53704.0,STARLINK-4714,PAYLOAD,2024-01-22 10:50:02,15.08840247,0.000136,53.2164,133.5338,97.2569,262.8577,1.8414e-05,5e-08,0.0,0 STARLINK-4714,1 53704U 22107E   24022.45141484  .00000005  00000-0  18414-4 0  9999,2 53704  53.2164 133.5338 0001360  97.2569 262.8577 15.08840247 76768,6917.88,95.438,540.685,538.804,0.0
53704.0,STARLINK-4714,PAYLOAD,2024-01-22 14:00:48,15.08842225,0.0001348,53.2166,132.9389,94.1324,265.9822,2.7593e-05,1.51e-06,0.0,0 STARLINK-4714,1 53704U 22107E   24022.58389321  .00000151  00000-0  27593-4 0  9997,2 53704  53.2166 132.9389 0001348  94.1324 265.9822 15.08842225 77373,6917.874,95.437,540.671,538.806,0.0
53704.0,STARLINK-4714,PAYLOAD,2024-01-23 13:51:34,15.08851707,0.0001364,53.2167,128.4789,89.2871,270.8277,3.3059e-05,2.38e-06,0.0,0 STARLINK-4714,1 53704U 22107E   24023.57748640  .00000238  00000-0  33059-4 0  9990,2 53704  53.2167 128.4789 0001364  89.2871 270.8277 15.08851707 76933,6917.845,95.437,540.653,538.766,0.0
53704.0,STARLINK-4714,PAYLOAD,2024-01-24 12:07:00,15.08831806,0.0001375,53.2171,124.3145,100.5645,259.5502,-3.1826e-05,-7.94e-06,0.0,0 STARLINK-4714,1 53704U 22107E   24024.50486340 -.00000794  00000-0 -31826-4 0  9999,2 53704  53.2171 124.3145 0001375 100.5645 259.5502 15.08831806 77076,6917.905,95.438,540.722,538.819,0.0
53704.0,STARLINK-4714,PAYLOAD,2024-01-25 11:57:46,15.08853473,0.0001444,53.2174,119.857,113.5055,246.6089,-0.00019915,-3.457e-05,0.0,0 STARLINK-4714,1 53704U 22107E   24025.49845998 -.00003457  00000-0 -19915-3 0  9999,2 53704  53.2174 119.8570 0001444 113.5055 246.6089 15.08853473 77224,6917.839,95.437,540.703,538.705,0.0
53704.0,STARLINK-4714,PAYLOAD,2024-01-25 13:33:10,15.08804007,0.0001639,53.2169,119.5603,102.2772,257.8404,0.00051011,7.832e-05,0.0,0 STARLINK-4714,1 53704U 22107E   24025.56470715  .00007832  00000-0  51011-3 0  9990,2 53704  53.2169 119.5603 0001639 102.2772 257.8404 15.08804007 77829,6917.99,95.44,540.989,538.722,0.0
53704.0,STARLINK-4714,PAYLOAD,2024-01-26 11:48:34,15.088409,0.0001298,53.2166,115.3978,78.9033,281.2105,0.0001376,1.903e-05,0.0,0 STARLINK-4714,1 53704U 22107E   24026.49206067  .00001903  00000-0  13760-3 0  9992,2 53704  53.2166 115.3978 0001298  78.9033 281.2105 15.08840900 77376,6917.878,95.437,540.641,538.845,0.0
53704.0,STARLINK-4714,PAYLOAD,2024-01-26 13:23:57,15.08802504,0.0001945,53.2184,115.1015,61.9345,298.1844,0.00071098,0.00011034,0.0,0 STARLINK-4714,1 53704U 22107E   24026.55830838  .00011034  00000-0  71098-3 0  9992,2 53704  53.2184 115.1015 0001945  61.9345 298.1844 15.08802504 77974,6917.995,95.44,541.206,538.514,0.0
53704.0,STARLINK-4714,PAYLOAD,2024-01-27 13:14:44,15.08841753,0.0001879,53.2185,110.6378,61.3486,298.7695,4.6561e-05,4.53e-06,0.0,0 STARLINK-4714,1 53704U 22107E   24027.55190641  .00000453  00000-0  46561-4 0  9995,2 53704  53.2185 110.6378 0001879  61.3486 298.7695 15.08841753 77534,6917.875,95.437,541.04,538.44,0.0
53704.0,STARLINK-4714,PAYLOAD,2024-01-28 11:30:08,15.08845331,0.0001909,53.2182,106.4785,62.7482,297.3704,-2.9232e-05,-7.53e-06,0.0,0 STARLINK-4714,1 53704U 22107E   24028.47926683 -.00000753  00000-0 -29232-4 0  9991,2 53704  53.2182 106.4785 0001909  62.7482 297.3704 15.08845331 78264,6917.864,95.437,541.05,538.408,0.0
53704.0,STARLINK-4714,PAYLOAD,2024-01-29 09:45:31,15.08850255,0.0001522,53.2176,102.3147,71.5767,288.5391,1.6261e-05,-2.9e-07,0.0,0 STARLINK-4714,1 53704U 22107E   24029.40661998 -.00000029  00000-0  16261-4 0  9993,2 53704  53.2176 102.3147 0001522  71.5767 288.5391 15.08850255 77814,6917.849,95.437,540.767,538.661,0.0
53704.0,STARLINK-4714,PAYLOAD,2024-01-30 11:11:42,15.08837081,0.0001521,53.2173,97.5539,88.0339,272.0828,-2.3671e-05,-6.65e-06,0.0,0 STARLINK-4714,1 53704U 22107E   24030.46646835 -.00000665  00000-0 -23671-4 0  9994,2 53704  53.2173  97.5539 0001521  88.0339 272.0828 15.08837081 77970,6917.889,95.438,540.807,538.702,0.0
53704.0,STARLINK-4714,PAYLOAD,2024-01-30 14:22:29,15.0883755,0.0001516,53.2171,96.9587,88.9454,271.1712,-2.3519e-05,-6.62e-06,0.0,0 STARLINK-4714,1 53704U 22107E   24030.59894802 -.00000662  00000-0 -23519-4 0  9995,2 53704  53.2171  96.9587 0001516  88.9454 271.1712 15.08837550 78586,6917.888,95.438,540.802,538.704,0.0
53704.0,STARLINK-4714,PAYLOAD,2024-01-31 11:02:30,15.08791836,0.0001857,53.2171,93.0926,100.5681,259.5521,0.00064653,0.00010003,0.0,0 STARLINK-4714,1 53704U 22107E   24031.46007313  .00010003  00000-0  64653-3 0  9996,2 53704  53.2171  93.0926 0001857 100.5681 259.5521 15.08791836 78126,6918.028,95.441,541.177,538.608,0.0
53704.0,STARLINK-4714,PAYLOAD,2024-02-01 09:17:54,15.08833449,0.0001606,53.2174,88.9292,99.1728,260.9446,5.4677e-05,5.82e-06,0.0,0 STARLINK-4714,1 53704U 22107E   24032.38743067  .00000582  00000-0  54677-4 0  9998,2 53704  53.2174  88.9292 0001606  99.1728 260.9446 15.08833449 78269,6917.9,95.438,540.876,538.654,0.0
53704.0,STARLINK-4714,PAYLOAD,2024-02-01 12:28:40,15.0883838,0.0001509,53.2176,88.335,94.9563,265.1601,7.5697e-05,9.17e-06,0.0,0 STARLINK-4714,1 53704U 22107E   24032.51990754  .00000917  00000-0  75697-4 0  9997,2 53704  53.2176  88.3350 0001509  94.9563 265.1601 15.08838380 78878,6917.885,95.438,540.794,538.706,0.0
53704.0,STARLINK-4714,PAYLOAD,2024-02-02 10:44:04,15.08842481,0.000162,53.2176,84.175,82.4813,277.6363,3.6208e-05,2.88e-06,0.0,0 STARLINK-4714,1 53704U 22107E   24033.44726891  .00000288  00000-0  36208-4 0  9995,2 53704  53.2176  84.1750 0001620  82.4813 277.6363 15.08842481 78421,6917.873,95.437,540.859,538.617,0.0
53704.0,STARLINK-4714,PAYLOAD,2024-02-02 12:19:26,15.08845363,0.0001644,53.2179,83.8755,89.9316,270.1864,5.8951e-05,6.5e-06,0.0,0 STARLINK-4714,1 53704U 22107E   24033.51350568  .00000650  00000-0  58951-4 0  9999,2 53704  53.2179  83.8755 0001644  89.9316 270.1864 15.08845363 79024,6917.864,95.437,540.866,538.592,0.0
53704.0,STARLINK-4714,PAYLOAD,2024-02-03 10:34:51,15.08840034,0.0001621,53.2177,79.7115,105.7037,254.4134,-3.4537e-07,-2.94e-06,0.0,0 STARLINK-4714,1 53704U 22107E   24034.44087161 -.00000294  00000-0 -34537-6 0  9990,2 53704  53.2177  79.7115 0001621 105.7037 254.4134 15.08840034 79168,6917.88,95.438,540.867,538.624,0.0
53704.0,STARLINK-4714,PAYLOAD,2024-02-04 12:01:03,15.08823341,0.0001723,53.218,74.9546,88.8325,271.2865,-0.00011489,-2.115e-05,0.0,0 STARLINK-4714,1 53704U 22107E   24035.50073814 -.00002115  00000-0 -11489-3 0  9990,2 53704  53.2180  74.9546 0001723  88.8325 271.2865 15.08823341 78733,6917.931,95.439,540.988,538.604,0.0
53704.0,STARLINK-4714,PAYLOAD,2024-02-05 02:19:30,15.08835513,0.000112,53.2177,72.2787,75.052,285.0596,4.8101e-05,4.78e-06,0.0,0 STARLINK-4714,1 53704U 22107E   24036.09688560  .00000478  00000-0  48101-4 0  9995,2 53704  53.2177  72.2787 0001120  75.0520 285.0596 15.08835513 78821,6917.894,95.438,540.534,538.984,0.0
53704.0,STARLINK-4714,PAYLOAD,2024-02-05 08:41:03,15.08838701,0.00012,53.2165,71.0939,52.791,307.3191,0.00015784,2.225e-05,0.0,0 STARLINK-4714,1 53704U 22107E   24036.36184164  .00002225  00000-0  15784-3 0  9998,2 53704  53.2165  71.0939 0001200  52.7910 307.3191 15.08838701 79459,6917.884,95.438,540.58,538.919,0.0
53704.0,STARLINK-4714,PAYLOAD,2024-02-06 02:10:17,15.08844845,0.0001325,53.2157,67.8194,101.5481,258.566,0.00020848,3.032e-05,0.0,0 STARLINK-4714,1 53704U 22107E   24037.09047552  .00003032  00000-0  20848-3 0  9992,2 53704  53.2157  67.8194 0001325 101.5481 258.5660 15.08844845 78970,6917.866,95.437,540.647,538.814,0.0
53704.0,STARLINK-4714,PAYLOAD,2024-02-06 08:31:49,15.08844946,0.0001499,53.2176,66.63,106.1162,253.9995,0.00023274,3.419e-05,0.0,0 STARLINK-4714,1 53704U 22107E   24037.35543405  .00003419  00000-0  23274-3 0  9994,2 53704  53.2176  66.6300 0001499 106.1162 253.9995 15.08844946 79609,6917.865,95.437,540.767,538.693,0.0
53704.0,STARLINK-4714,PAYLOAD,2024-02-07 08:22:36,15.0885504,0.000137,53.2163,62.1687,102.708,257.4066,-1.2257e-06,-3.07e-06,0.0,0 STARLINK-4714,1 53704U 22107E   24038.34903009 -.00000307  00000-0 -12257-5 0  9990,2 53704  53.2163  62.1687 0001370 102.7080 257.4066 15.08855040 79169,6917.834,95.437,540.647,538.752,0.0
53704.0,STARLINK-4714,PAYLOAD,2024-02-07 17:54:55,15.08848624,0.0001321,53.2162,60.3838,101.3307,258.7834,-4.308e-05,-9.74e-06,0.0,0 STARLINK-4714,1 53704U 22107E   24038.74647231 -.00000974  00000-0 -43080-4 0  9993,2 53704  53.2162  60.3838 0001321 101.3307 258.7834 15.08848624 79223,6917.854,95.437,540.633,538.805,0.0
53704.0,STARLINK-4714,PAYLOAD,2024-02-08 08:13:24,15.08837458,0.0001611,53.2183,57.7087,99.0386,261.0789,-0.00010175,-1.907e-05,0.0,0 STARLINK-4714,1 53704U 22107E   24039.34264169 -.00001907  00000-0 -10175-3 0  9990,2 53704  53.2183  57.7087 0001611  99.0386 261.0789 15.08837458 79313,6917.888,95.438,540.868,538.639,0.0
53704.0,STARLINK-4714,PAYLOAD,2024-02-09 09:39:33,15.08847434,0.0001484,53.2185,52.9499,100.9562,259.1597,5.5416e-05,5.94e-06,0.0,0 STARLINK-4714,1 53704U 22107E   24040.40247078  .00000594  00000-0  55416-4 0  9996,2 53704  53.2185  52.9499 0001484 100.9562 259.1597 15.08847434 79472,6917.858,95.437,540.749,538.696,0.0
53704.0,STARLINK-4714,PAYLOAD,2024-02-10 09:30:21,15.0883681,0.0001512,53.2182,48.4863,89.9602,270.1564,7.2022e-05,8.58e-06,0.0,0 STARLINK-4714,1 53704U 22107E   24041.39608145  .00000858  00000-0  72022-4 0  9996,2 53704  53.2182  48.4863 0001512  89.9602 270.1564 15.08836810 79627,6917.89,95.438,540.801,538.709,0.0
53704.0,STARLINK-4714,PAYLOAD,2024-02-11 07:45:44,15.0884863,0.0001651,53.2189,44.3227,81.5652,278.5527,5.0363e-05,5.14e-06,0.0,0 STARLINK-4714,1 53704U 22107E   24042.32343699  .00000514  00000-0  50363-4 0  9993,2 53704  53.2189  44.3227 0001651  81.5652 278.5527 15.08848630 79769,6917.854,95.437,540.861,538.577,0.0
